BEIDOU-3 G3             
1 45807U 20040A   26074.08954396 -.00000353  00000+0  00000+0 0  9993
2 45807   2.2145  67.1502 0004845 325.3989 282.9054  1.00270422 21125
GALAXY 30 (G-30)        
1 46114U 20056C   26074.25689799  .00000000  00000+0  00000+0 0  9991
2 46114   0.0272 152.7003 0002021 214.1508 133.4993  1.00270038 20356
QZS-1R (MICHIBIKI-1R)   
1 49336U 21096A   26073.48417348 -.00000213  00000+0  00000+0 0  9995
2 49336  37.2643  80.9807 0748407 269.9092 130.1920  1.00287959 16061
QZS-6 (MICHIBIKI-6)     
1 62876U 25023A   26074.08555727 -.00000234  00000+0  00000+0 0  9997
2 62876   0.0202 100.9048 0002204 261.7048 291.3489  1.00274709  4014
